{"type": "FeatureCollection", "features": [ {"type": "Feature", "properties": {"norad_id": 30081, "name": "FENGYUN 1C DEB", "group": "fengyun-1c-debris", "lat": 5.511894436730949, "lon": 173.48585960885924, "alt_km": 942.3138263537612, "timestamp": "2025-12-22T14:45:57.676327+00:00", "meta": {"OBJECT_NAME": "FENGYUN 1C DEB", "OBJECT_ID": "1999-025QJ", "EPOCH": "2025-12-21T22:46:09.714720", "MEAN_MOTION": 13.98291242, "ECCENTRICITY": 0.00757368, "INCLINATION": 98.9236, "RA_OF_ASC_NODE": 351.9689, "ARG_OF_PERICENTER": 313.6642, "MEAN_ANOMALY": 107.8724, "EPHEMERIS_TYPE": 0, "CLASSIFICATION_TYPE": "U", "NORAD_CAT_ID": 30081, "ELEMENT_SET_NO": 999, "REV_AT_EPOCH": 96483, "BSTAR": 0.0003697661, "MEAN_MOTION_DOT": 4.97e-06, "MEAN_MOTION_DDOT": 0}, "tle": {"line1": "1 30081U 99025QJ  25355.94872355  .00000497  00000+0  36977-3 0  9994", "line2": "2 30081  98.9236 351.9689 0075736 313.6642 107.8724 13.98291242964835"}}, "geometry": {"type": "Point", "coordinates": [173.48585960885924, 5.511894436730949]}}, {"type": "Feature", "properties": {"norad_id": 30082, "name": "FENGYUN 1C DEB", "group": "fengyun-1c-debris", "lat": -72.76079439133927, "lon": 75.90970105214136, "alt_km": 551.8669492299987, "timestamp": "2025-12-22T14:45:57.676338+00:00", "meta": {"OBJECT_NAME": "FENGYUN 1C DEB", "OBJECT_ID": "1999-025QK", "EPOCH": "2025-12-21T21:48:11.233440", "MEAN_MOTION": 15.15480349, "ECCENTRICITY": 0.00702488, "INCLINATION": 98.8194, "RA_OF_ASC_NODE": 285.1139, "ARG_OF_PERICENTER": 135.8077, "MEAN_ANOMALY": 224.8793, "EPHEMERIS_TYPE": 0, "CLASSIFICATION_TYPE": "U", "NORAD_CAT_ID": 30082, "ELEMENT_SET_NO": 999, "REV_AT_EPOCH": 1432, "BSTAR": 0.0012155752, "MEAN_MOTION_DOT": 0.00024466, "MEAN_MOTION_DDOT": 0}, "tle": {"line1": "1 30082U 99025QK  25355.90846335  .00024466  00000+0  12156-2 0  9994", "line2": "2 30082  98.8194 285.1139 0070248 135.8077 224.8793 15.15480349 14320"}}, "geometry": {"type": "Point", "coordinates": [75.90970105214136, -72.76079439133927]}}, {"type": "Feature", "properties": {"norad_id": 30086, "name": "FENGYUN 1C DEB", "group": "fengyun-1c-debris", "lat": 18.3481479720011, "lon": -146.91612371968938, "alt_km": 854.154080109679, "timestamp": "2025-12-22T14:45:57.676349+00:00", "meta": {"OBJECT_NAME": "FENGYUN 1C DEB", "OBJECT_ID": "1999-025QP", "EPOCH": "2025-12-22T00:37:47.993952", "MEAN_MOTION": 14.03843367, "ECCENTRICITY": 0.00619622, "INCLINATION": 98.9096, "RA_OF_ASC_NODE": 29.5245, "ARG_OF_PERICENTER": 108.9027, "MEAN_ANOMALY": 316.7633, "EPHEMERIS_TYPE": 0, "CLASSIFICATION_TYPE": "U", "NORAD_CAT_ID": 30086, "ELEMENT_SET_NO": 999, "REV_AT_EPOCH": 96826, "BSTAR": 0.00035988648, "MEAN_MOTION_DOT": 5.34e-06, "MEAN_MOTION_DDOT": 0}, "tle": {"line1": "1 30086U 99025QP  25356.02624993  .00000534  00000+0  35989-3 0  9996", "line2": "2 30086  98.9096  29.5245 0061962 108.9027 316.7633 14.03843367968267"}}, "geometry": {"type": "Point", "coordinates": [-146.91612371968938, 18.3481479720011]}}, {"type": "Feature", "properties": {"norad_id": 30087, "name": "FENGYUN 1C DEB", "group": "fengyun-1c-debris", "lat": 59.90365917938788, "lon": -136.67882632033934, "alt_km": 619.1592656573894, "timestamp": "2025-12-22T14:45:57.676360+00:00", "meta": {"OBJECT_NAME": "FENGYUN 1C DEB", "OBJECT_ID": "1999-025QQ", "EPOCH": "2025-12-22T01:08:08.887776", "MEAN_MOTION": 14.35720123, "ECCENTRICITY": 0.02304404, "INCLINATION": 98.379, "RA_OF_ASC_NODE": 28.037, "ARG_OF_PERICENTER": 93.7033, "MEAN_ANOMALY": 330.394, "EPHEMERIS_TYPE": 0, "CLASSIFICATION_TYPE": "U", "NORAD_CAT_ID": 30087, "ELEMENT_SET_NO": 999, "REV_AT_EPOCH": 98829, "BSTAR": 0.00022423486, "MEAN_MOTION_DOT": 8.28e-06, "MEAN_MOTION_DDOT": 0}, "tle": {"line1": "1 30087U 99025QQ  25356.04732509  .00000828  00000+0  22423-3 0  9997", "line2": "2 30087  98.3790  28.0370 0230440  93.7033 330.3940 14.35720123988290"}}, "geometry": {"type": "Point", "coordinates": [-136.67882632033934, 59.90365917938788]}}, {"type": "Feature", "properties": {"norad_id": 30088, "name": "FENGYUN 1C DEB", "group": "fengyun-1c-debris", "lat": 23.356231165911904, "lon": -23.04011367501432, "alt_km": 910.7226458278974, "timestamp": "2025-12-22T14:45:57.676371+00:00", "meta": {"OBJECT_NAME": "FENGYUN 1C DEB", "OBJECT_ID": "1999-025QR", "EPOCH": "2025-12-21T17:44:13.819776", "MEAN_MOTION": 14.35929894, "ECCENTRICITY": 0.02010032, "INCLINATION": 98.355, "RA_OF_ASC_NODE": 339.7486, "ARG_OF_PERICENTER": 220.4262, "MEAN_ANOMALY": 315.9542, "EPHEMERIS_TYPE": 0, "CLASSIFICATION_TYPE": "U", "NORAD_CAT_ID": 30088, "ELEMENT_SET_NO": 999, "REV_AT_EPOCH": 98801, "BSTAR": 0.00021778728, "MEAN_MOTION_DOT": 7.45e-06, "MEAN_MOTION_DDOT": 0}, "tle": {"line1": "1 30088U 99025QR  25355.73904884  .00000745  00000+0  21779-3 0  9991", "line2": "2 30088  98.3550 339.7486 0201003 220.4262 315.9542 14.35929894988014"}}, "geometry": {"type": "Point", "coordinates": [-23.04011367501432, 23.356231165911904]}}, {"type": "Feature", "properties": {"norad_id": 30089, "name": "FENGYUN 1C DEB", "group": "fengyun-1c-debris", "lat": -36.31917551250578, "lon": 75.6215768239289, "alt_km": 753.9164843247354, "timestamp": "2025-12-22T14:45:57.676382+00:00", "meta": {"OBJECT_NAME": "FENGYUN 1C DEB", "OBJECT_ID": "1999-025QS", "EPOCH": "2025-12-22T05:57:21.981312", "MEAN_MOTION": 14.30316125, "ECCENTRICITY": 0.007372, "INCLINATION": 98.9037, "RA_OF_ASC_NODE": 261.8632, "ARG_OF_PERICENTER": 182.0615, "MEAN_ANOMALY": 305.1062, "EPHEMERIS_TYPE": 0, "CLASSIFICATION_TYPE": "U", "NORAD_CAT_ID": 30089, "ELEMENT_SET_NO": 999, "REV_AT_EPOCH": 98615, "BSTAR": 0.00020357445, "MEAN_MOTION_DOT": 4.98e-06, "MEAN_MOTION_DDOT": 0}, "tle": {"line1": "1 30089U 99025QS  25356.24817108  .00000498  00000+0  20357-3 0  9997", "line2": "2 30089  98.9037 261.8632 0073720 182.0615 305.1062 14.30316125986150"}}, "geometry": {"type": "Point", "coordinates": [75.6215768239289, -36.31917551250578]}}, {"type": "Feature", "properties": {"norad_id": 30090, "name": "FENGYUN 1C DEB", "group": "fengyun-1c-debris", "lat": 63.78792239030392, "lon": 150.79777116831048, "alt_km": 748.9855198453115, "timestamp": "2025-12-22T14:45:57.676393+00:00", "meta": {"OBJECT_NAME": "FENGYUN 1C DEB", "OBJECT_ID": "1999-025QT", "EPOCH": "2025-12-21T05:40:23.816928", "MEAN_MOTION": 14.29044159, "ECCENTRICITY": 0.005817, "INCLINATION": 99.4092, "RA_OF_ASC_NODE": 168.9937, "ARG_OF_PERICENTER": 87.6529, "MEAN_ANOMALY": 88.3168, "EPHEMERIS_TYPE": 0, "CLASSIFICATION_TYPE": "U", "NORAD_CAT_ID": 30090, "ELEMENT_SET_NO": 999, "REV_AT_EPOCH": 98391, "BSTAR": 0.00027553, "MEAN_MOTION_DOT": 6.6e-06, "MEAN_MOTION_DDOT": 0}, "tle": {"line1": "1 30090U 99025QT  25355.23638677  .00000660  00000+0  27553-3 0  9995", "line2": "2 30090  99.4092 168.9937 0058170  87.6529  88.3168 14.29044159983911"}}, "geometry": {"type": "Point", "coordinates": [150.79777116831048, 63.78792239030392]}}, {"type": "Feature", "properties": {"norad_id": 30092, "name": "FENGYUN 1C DEB", "group": "fengyun-1c-debris", "lat": 23.80831718276806, "lon": 172.29595164618183, "alt_km": 817.1512111037173, "timestamp": "2025-12-22T14:45:57.676403+00:00", "meta": {"OBJECT_NAME": "FENGYUN 1C DEB", "OBJECT_ID": "1999-025QV", "EPOCH": "2025-12-21T10:35:03.805728", "MEAN_MOTION": 14.39167518, "ECCENTRICITY": 0.00827402, "INCLINATION": 98.923, "RA_OF_ASC_NODE": 175.0496, "ARG_OF_PERICENTER": 224.5488, "MEAN_ANOMALY": 199.1445, "EPHEMERIS_TYPE": 0, "CLASSIFICATION_TYPE": "U", "NORAD_CAT_ID": 30092, "ELEMENT_SET_NO": 999, "REV_AT_EPOCH": 98874, "BSTAR": 0.00044266249, "MEAN_MOTION_DOT": 1.377e-05, "MEAN_MOTION_DDOT": 0}, "tle": {"line1": "1 30092U 99025QV  25355.44101627  .00001377  00000+0  44266-3 0  9996", "line2": "2 30092  98.9230 175.0496 0082740 224.5488 199.1445 14.39167518988747"}}, "geometry": {"type": "Point", "coordinates": [172.29595164618183, 23.80831718276806]}}, {"type": "Feature", "properties": {"norad_id": 30093, "name": "FENGYUN 1C DEB", "group": "fengyun-1c-debris", "lat": 39.5284107443103, "lon": -135.80329898073, "alt_km": 744.4537581831692, "timestamp": "2025-12-22T14:45:57.676413+00:00", "meta": {"OBJECT_NAME": "FENGYUN 1C DEB", "OBJECT_ID": "1999-025QW", "EPOCH": "2025-12-21T15:33:03.184992", "MEAN_MOTION": 14.43739142, "ECCENTRICITY": 0.0069632, "INCLINATION": 98.8675, "RA_OF_ASC_NODE": 230.591, "ARG_OF_PERICENTER": 311.0903, "MEAN_ANOMALY": 103.6846, "EPHEMERIS_TYPE": 0, "CLASSIFICATION_TYPE": "U", "NORAD_CAT_ID": 30093, "ELEMENT_SET_NO": 999, "REV_AT_EPOCH": 98932, "BSTAR": 0.0007345, "MEAN_MOTION_DOT": 2.522e-05, "MEAN_MOTION_DDOT": 0}, "tle": {"line1": "1 30093U 99025QW  25355.64795353  .00002522  00000+0  73450-3 0  9994", "line2": "2 30093  98.8675 230.5910 0069632 311.0903 103.6846 14.43739142989320"}}, "geometry": {"type": "Point", "coordinates": [-135.80329898073, 39.5284107443103]}}, {"type": "Feature", "properties": {"norad_id": 30095, "name": "FENGYUN 1C DEB", "group": "fengyun-1c-debris", "lat": 79.0046804815592, "lon": -137.49793039404327, "alt_km": 705.1380698863168, "timestamp": "2025-12-22T14:45:57.676424+00:00", "meta": {"OBJECT_NAME": "FENGYUN 1C DEB", "OBJECT_ID": "1999-025QY", "EPOCH": "2025-12-21T12:27:58.203360", "MEAN_MOTION": 14.82293598, "ECCENTRICITY": 0.0164221, "INCLINATION": 99.2214, "RA_OF_ASC_NODE": 277.9744, "ARG_OF_PERICENTER": 304.8587, "MEAN_ANOMALY": 53.7273, "EPHEMERIS_TYPE": 0, "CLASSIFICATION_TYPE": "U", "NORAD_CAT_ID": 30095, "ELEMENT_SET_NO": 999, "REV_AT_EPOCH": 99465, "BSTAR": 0.001993, "MEAN_MOTION_DOT": 0.00020131, "MEAN_MOTION_DDOT": 0}, "tle": {"line1": "1 30095U 99025QY  25355.51942365  .00020131  00000+0  19930-2 0  9997", "line2": "2 30095  99.2214 277.9744 0164221 304.8587  53.7273 14.82293598994658"}}, "geometry": {"type": "Point", "coordinates": [-137.49793039404327, 79.0046804815592]}}]}